#dP2023 10 12  0  0  0.00000000      96 __u+U ITR00 EXT  IAC
## 2283 345600.00000000   900.00000000 60229 0.0000000000000
+  119   C06C07C08C09C10C11C12C13C14C16C19C20C21C22C23C24C25
+        C26C27C28C29C30C32C33C34C35C36C37C38C39C40C41C42C43
+        C44C45C46E02E03E04E05E07E08E09E10E11E12E13E14E15E19
+        E21E24E25E26E27E30E31E33E34E36G01G02G03G04G05G06G07
+        G08G09G10G11G12G13G14G15G16G17G18G19G20G21G22G23G24
+        G25G26G27G28G29G30G31G32J02J03J04R01R02R03R04R05R07
+        R08R09R11R12R13R14R15R16R17R18R19R20R21R22R24R25R26
++        10  9 10 10  9  9  8  9  9 10  6  8 10  9 10  9  8
++         8 10  9  8  9  9  9  8  7  9  8 10 11 10  8  9  9
++         6  7  8  7  8  7  7  7  8  7  8  7  8  7  8  7  6
++         8  8  7  7  8  8  8  7  6  7  7  6  7  7  8  7  6
++         7  7  7 11  8  7  8  6  7  8  8  8  8  7  8  8  8
++         7  7  6  9  8  7  7  8  8  9  9  9  8  9  8  9  8
++         8  6  8  9  8  9  7  9  6  7  8  7  7  7  7  9  9
%c M  cc GPS ccc cccc cccc cccc cccc ccccc ccccc ccccc ccccc
%c cc cc ccc ccc cccc cccc cccc cccc ccccc ccccc ccccc ccccc
%f  0.0000000  0.000000000  0.00000000000  0.000000000000000
%f  0.0000000  0.000000000  0.00000000000  0.000000000000000
%i    0    0    0    0      0      0      0      0         0
%i    0    0    0    0      0      0      0      0         0
/* IAC                                ULTRA-RAPID PREDICTION
/* S/V CLOCKS ARE ALIGNED TO GNSS TIME                      
/* G:C1WC2W R:C1PC2P E:C1XC5X C:C2IC6I J:C1CC2S             
/* PCV:IGS20_2280 OL/AL:FES2004  NONE     YN ORB:CoN CLK:CoN
*  2023 10 12 13  0  0.00000000
PC06 -16735.962525  34104.941109  18003.880235     52.037209
PC07  -4512.855640  36577.212390  20749.784329   -146.629346
PC08  -8234.331881  18969.719804 -36770.257884    300.458215
PC09 -11004.021676  32706.490010  24252.702089     51.136907
PC10   2383.577308  39746.728976  15008.144103    110.813022
PC11   5042.778249 -24265.634430  12872.430479    199.699533
PC12  16979.125965 -21525.679585  -5116.287809    900.678057
PC13  -1091.085854  21940.928853 -35829.613365    366.402182
PC14  -6161.836131 -25003.825120  10691.246445    573.430768
PC16 -21358.334653  33726.445774  13312.832572   -122.353913
PC19  13028.351523  24629.923029  -1690.604449   -971.707220
PC20   -200.611762  22301.052440 -16788.708178    209.662739
PC21  14516.379600  -6163.173566  23027.264399   -969.550899
PC22  19478.351486  12968.705153  15206.286499   -269.546603
PC23 -25523.264304  -6552.894316  -9193.719189   -846.643177
PC24  11111.970447 -15000.975392 -20745.090311    486.435835
PC25 -11393.587657 -14677.809456 -20836.549993    231.243154
PC26  25401.547402  -7167.234866  -9022.498190   -190.639332
PC27 -19396.416924  15486.047282  12734.945410    212.385785
PC28 -16953.923754  -1605.668022  22116.233336    159.773045
PC29   4116.359976  20216.044875 -18795.653754    186.742639
PC30 -10977.561188  25431.071527  -3329.642070     -6.365835
PC32 -14529.914333   6176.734022 -23004.737560   -529.588654
PC33 -13098.018606 -24567.055445   1815.979825   -955.560584
PC34  10033.401592 -25620.940679   4691.458678    279.468118
PC35  17094.966796    952.661482 -22050.891812    526.923314
PC36  10094.779458  15169.138679  21155.843655   -183.262497
PC37 -25952.239957   6097.269403   8311.377881   -851.354473
PC38 -17322.397857  18462.163957 -33729.004676    110.672982
PC39 -23260.083672  34164.673828   7710.068430     -5.188300
PC40  -8228.124906  33435.846270  24540.532262    -39.835089
PC41 -19503.982390 -13563.508411 -14593.771766   -873.353594
PC42   1477.939796 -21467.106228  17790.635871   -523.783753
PC43  -3444.664357 -20857.686515  18217.411890     43.658553
PC44  18918.644870 -16011.769815 -12858.575550    259.385007
PC45  25748.340773   6212.289914   8742.342884    -35.270608
PC46  -9895.356276  15156.576608  21248.076809    -91.261245
PE02 -14803.861530   9825.414280  23678.993732     69.671107
PE03 -12277.072757  21544.733654 -16181.526574    -64.273954
PE04    369.298616 -29571.121664  -1274.444263   -232.600896
PE05 -17027.021442   1023.325021 -24195.285537     26.747209
PE07  11638.532876  20562.258556  17832.398059    -81.485378
PE08   -693.246458  29587.099292    773.715691   -160.251520
PE09 -11493.815313 -20649.132317 -17821.989264   -188.739318
PE10  -4616.423197 -15531.561091  24765.946061   -570.589827
PE11 -15307.679873  -9214.794179  23591.037131   3078.403774
PE12   5704.806241 -18983.742062  21983.709905   -733.514657
PE13  14619.317762   9635.941230 -23860.694026    -19.693702
PE14  -3707.368445 -22122.980719   7283.955845    366.491487
PE15  -6199.829323  19030.018338 -21802.940413    -60.583519
PE19  13359.092937 -19377.218374  17952.352063  -1441.049718
PE21  25816.017797   5654.152727 -13323.918180   -557.970607
PE24 -21996.214130 -18965.746155  -5787.011240   -371.537241
PE25 -25909.160222  -5949.367340  13035.846684     -3.136779
PE26  26768.890859  -5687.803571 -11259.346420    249.069569
PE27  22367.895934  18648.264104   5276.312061   -172.662999
PE30   5298.126447  20464.302465  20709.835107   -573.684425
PE31  -5807.119666 -20505.558599 -20532.685605     -7.411613
PE33  23418.360395 -16905.720958   6441.926935      0.285435
PE34 -23057.232788  17198.509785  -7025.766117    -71.976843
PE36 -26577.273167   5249.805573  11934.570898   -128.864816
PG01  -5826.900441  17125.001202 -19664.584617    163.829617
PG02 -11961.022907  18665.730217 -13988.526526   -542.961841
PG03   4918.771866  18273.758664 -18827.047008    -83.379753
PG04   -501.706163  26355.441013   2643.036669    182.298838
PG05   9948.453205 -11433.953138  21636.657041   -146.214591
PG06  24136.608752  -4431.363451 -10215.330690    532.186352
PG07  12358.225990  10869.299128  21397.702040     42.449399
PG08  -5912.775093  24532.472910   7515.586985   -146.744470
PG09   7323.237118  22781.786701  11382.117884    -34.545094
PG10 -23760.586584 -10346.303477  -6376.654081    -57.026977
PG11  23468.094733 -12175.353584   2232.343200   -411.638933
PG12   -830.833901 -17920.970289 -19885.246946   -435.025809
PG13  13097.970551 -18403.141582  13597.827122    583.143807
PG14  23019.681854  12996.100482  -3381.733289    211.805694
PG15   2170.884273 -25526.533913   6048.180824     86.367699
PG16 -15630.478538   5805.433865  20464.860945   -440.301567
PG17  13127.659057   9274.654531 -20684.611254    723.837014
PG18 -13712.441643  -9108.807072  20890.884264   -446.447541
PG19  15180.512329    197.705578 -21969.365007    383.932189
PG20  19890.147419  -4617.514087  16925.988733    407.209037
PG21 -14451.458767  18289.435066 -11302.319564    146.941280
PG22  22568.801400   9093.309458  -9845.437724    104.350078
PG23 -19942.574306 -16734.448114   5737.151781     81.551819
PG24   8978.017547 -19446.048805 -15820.448019   -344.093114
PG25 -14206.707576 -19222.443859 -12181.283337    472.348652
PG26 -22514.506818   -382.141982  14233.024222    223.629223
PG27 -12653.397339  15313.774907  17166.043540    -53.956442
PG28 -23470.792779   3390.194099 -11988.150319    -24.223159
PG29  -5003.484956 -23209.160519  11754.259819   -610.007431
PG30  20655.501053   3360.108375  16627.425372   -479.317698
PG31 -24899.253633   9398.547846  -3246.607201   -224.555531
PG32 -14802.286149  -4533.332276 -21419.812438   -571.569839
PJ02 -26562.998815  21839.642988  29490.682394     -5.550924
PJ03 -35038.890202  23518.061645   3738.587264     -4.903399
PJ04 -20613.064526  25098.225967 -21796.634264     71.142880
PR01   7029.763524 -10858.428750  21977.595242     67.531817
PR02  -2889.518272 -23145.957372  10446.046763    -22.383912
PR03 -11299.657143 -21824.339293  -6917.727013     86.945775
PR04 -12967.968974  -8697.557097 -20155.343744    206.532974
PR05  -7876.588542   9144.812309 -22463.406098    120.499211
PR07  11557.138220  21316.823504   7860.095578     66.682221
PR08  13112.516629   8288.381292  20288.149754    -72.923299
PR09  -1034.305603  11296.913416  22867.364429    147.238367
PR11  25015.217645   4836.867213   1412.669544   -193.773797
PR12  18879.847893  -4717.872289 -16455.636302     32.267973
PR13   3597.578012 -10577.210211 -22942.321297    -40.119481
PR14 -16649.477778 -10692.480499 -16072.511050     25.392992
PR15 -25126.780470  -4380.350214     46.549203     85.445837
PR16 -19026.913022   4623.703011  16339.661876     19.571822
PR17  -4143.820148 -11013.444442  22637.082686     25.108522
PR18 -15022.959495   3234.781348  20365.273673    106.470842
PR19 -18956.939148  14494.421423   9034.441735   -250.613263
PR20 -11205.408136  19656.689830 -11735.998135   -101.666926
PR21   4606.827101  10402.743047 -22829.878138    -44.984305
PR22  15876.999182  -3455.600202 -19636.375859     88.340554
PR24   9833.657061 -20132.386861  12189.254683    -27.921127
PR25   3807.656485  11450.602935 -22469.229494     28.445042
PR26  13219.121366   8779.556044  19990.985324    -20.896032
EOF
